[{"OBJECT_NAME":"STARLINK-5895","OBJECT_ID":"2023-037BC","EPOCH":"2026-03-09T22:23:45.381696","MEAN_MOTION":15.07243555,"ECCENTRICITY":0.00049855,"INCLINATION":69.9972,"RA_OF_ASC_NODE":260.028,"ARG_OF_PERICENTER":264.4993,"MEAN_ANOMALY":95.5602,"EPHEMERIS_TYPE":0,"CLASSIFICATION_TYPE":"U","NORAD_CAT_ID":55964,"ELEMENT_SET_NO":999,"REV_AT_EPOCH":16460,"BSTAR":0.00072849946,"MEAN_MOTION_DOT":0.00010921,"MEAN_MOTION_DDOT":0},{"OBJECT_NAME":"FENGYUN 1C DEB","OBJECT_ID":"1999-025BBM","EPOCH":"2026-03-07T23:41:19.079232","MEAN_MOTION":14.72470246,"ECCENTRICITY":0.01607389,"INCLINATION":99.1941,"RA_OF_ASC_NODE":127.0213,"ARG_OF_PERICENTER":288.175,"MEAN_ANOMALY":194.9848,"EPHEMERIS_TYPE":0,"CLASSIFICATION_TYPE":"U","NORAD_CAT_ID":30971,"ELEMENT_SET_NO":999,"REV_AT_EPOCH":970,"BSTAR":0.00062783413,"MEAN_MOTION_DOT":4.813e-5,"MEAN_MOTION_DDOT":0}]
